STARLINK-3813           
1 52482U 22049AH  22160.58334491  .00044545  00000+0  32095-3 0  9999
2 52482  53.2157  97.1415 0001889  34.9144 359.7485 15.73138804  1309
STARLINK-3875           
1 52483U 22049AJ  22160.58334491  .00040457  00000+0  29213-3 0  9996
2 52483  53.2157  97.1479 0001722  29.8207   1.6774 15.73131701  1302
STARLINK-3887           
1 52484U 22049AK  22160.58334491  .00041258  00000+0  29778-3 0  9993
2 52484  53.2170  97.1427 0001795  34.0144   1.2698 15.73133031  1308
STARLINK-3913           
1 52485U 22049AL  22160.58334491  .00042019  00000+0  30314-3 0  9998
2 52485  53.2159  97.1435 0002061  39.0796 354.9368 15.73134625  1302
STARLINK-3918           
1 52486U 22049AM  22160.58334491  .00042112  00000+0  30334-3 0  9995
2 52486  53.2171  97.1389 0001916  26.7068   9.6480 15.73170364  1307
STARLINK-3902           
1 52487U 22049AN  22160.58334491  .00039364  00000+0  28434-3 0  9999
2 52487  53.2157  97.1442 0002038  36.2356 357.1620 15.73135895  1301
STARLINK-3892           
1 52488U 22049AP  22160.58334491  .00039145  00000+0  28276-3 0  9991
2 52488  53.2175  97.1364 0001624  25.7249  12.1658 15.73138800  1307
STARLINK-3923           
1 52489U 22049AQ  22160.58334491  .00042242  00000+0  30432-3 0  9991
2 52489  53.2160  97.1402 0001793  31.9356   4.0052 15.73165362  1301
STARLINK-3914           
1 52490U 22049AR  22160.58334491  .00005996  00000+0  47212-4 0  9993
2 52490  53.2176  97.1340 0001827  38.8851   0.2808 15.73148259  1308
STARLINK-3908           
1 52491U 22049AS  22160.58334491  .00003386  00000+0  28598-4 0  9991
2 52491  53.2160  97.1371 0002060  32.8341   4.4420 15.73148754  1300
STARLINK-3916           
1 52492U 22049AT  22160.58334491  .00044302  00000+0  31897-3 0  9990
2 52492  53.2172  97.1305 0001633  33.5628   6.8784 15.73158450  1305
STARLINK-3883           
1 52493U 22049AU  22160.58334491  .00039140  00000+0  28250-3 0  9994
2 52493  53.2159  97.1342 0001932  39.6407 358.8324 15.73157297  1304
STARLINK-3857           
1 52494U 22049AV  22160.58334491  .00012121  00000+0  90902-4 0  9999
2 52494  53.2170  97.1250 0001678  31.9665  10.9106 15.73135340  1303
STARLINK-3905           
1 52495U 22049AW  22160.58334491  .00044081  00000+0  31772-3 0  9999
2 52495  53.2173  97.1327 0002083  39.6644   0.0322 15.73134701  1305
STARLINK-3871           
1 52496U 22049AX  22160.58334491  .00039669  00000+0  28650-3 0  9997
2 52496  53.2171  95.2427 0001011  68.4118 165.0223 15.73136805  1309
STARLINK-3884           
1 52497U 22049AY  22160.58334491  .00041951  00000+0  30234-3 0  9996
2 52497  53.2169  97.1294 0001912  42.4051 358.5634 15.73159767  1305
STARLINK-3925           
1 52498U 22049AZ  22160.58334491  .00044344  00000+0  31926-3 0  9995
2 52498  53.2173  97.1240 0001916  39.1514   4.3655 15.73158401  1306
STARLINK-3894           
1 52499U 22049BA  22160.58334491  .00043231  00000+0  31120-3 0  9996
2 52499  53.2171  97.1278 0001934  39.5721   2.0531 15.73173526  1303
STARLINK-3866           
1 52500U 22049BB  22160.58334491  .00021637  00000+0  15846-3 0  9992
2 52500  53.2167  97.1225 0001787  24.8553  19.3632 15.73158896  1305
STARLINK-3907           
1 52501U 22049BC  22160.58334491  .00043317  00000+0  31233-3 0  9990
2 52501  53.2175  97.1280 0002062  37.8324   4.3726 15.73133692  1308
STARLINK-3912           
1 52502U 22049BD  22160.58334491  .00041820  00000+0  30148-3 0  9992
2 52502  53.2162  97.1187 0001639  48.9841 356.3869 15.73154475  1307
STARLINK-3861           
1 52503U 22049BE  22160.58334491  .00043114  00000+0  31053-3 0  9997
2 52503  53.2162  97.1198 0001800  39.8119   4.9404 15.73161525  1302
TIANZHOU-4              
1 52509U 22050A   22160.46731235  .00005437  00000+0  69427-4 0  9992
2 52509  41.4720 265.8641 0004829 244.2414 213.5059 15.59975547 63569
STARLINK-3951           
1 52533U 22051A   22160.58334491 -.00714225  00000+0 -98658-2 0  9996
2 52533  53.2171 161.6036 0001221  52.5129   2.4568 15.58928001  1300
STARLINK-3952           
1 52534U 22051B   22160.58334491 -.00714213  00000+0 -98692-2 0  9992
2 52534  53.2171 161.5910 0001185  54.7809 358.6947 15.58918747  1302
STARLINK-3958           
1 52535U 22051C   22160.58334491 -.00714252  00000+0 -98682-2 0  9995
2 52535  53.2171 161.5984 0001121  62.3728 351.8499 15.58923433  1304
STARLINK-3964           
1 52536U 22051D   22160.58334491 -.00714314  00000+0 -98658-2 0  9998
2 52536  53.2171 161.6046 0001079  69.7140 346.0029 15.58932585  1309
STARLINK-3897           
1 52537U 22051E   22160.58334491 -.00714359  00000+0 -98644-2 0  9993
2 52537  53.2171 161.6120 0001199  55.4626   1.0013 15.58937240  1301
STARLINK-3933           
1 52538U 22051F   22160.58334491 -.00714257  00000+0 -98596-2 0  9997
2 52538  53.2171 161.6272 0001120  63.3518 354.6058 15.58946492  1307
STARLINK-3757           
1 52539U 22051G   22160.58334491 -.00714212  00000+0 -98606-2 0  9991
2 52539  53.2171 161.6196 0001151  58.6879 358.5229 15.58941816  1302
STARLINK-3940           
1 52540U 22051H   22160.58334491 -.00714214  00000+0 -98552-2 0  9995
2 52540  53.2171 161.6489 0001119  63.2826 357.3792 15.58956470  1301
STARLINK-3845           
1 52541U 22051J   22160.58334491 -.00842080  00000+0 -20014-1 0  9996
2 52541  53.2171 162.8070 0001441  51.6828  73.4833 15.43467352  1304
STARLINK-3937           
1 52542U 22051K   22160.58334491 -.00714312  00000+0 -98549-2 0  9992
2 52542  53.2171 161.6564 0001124  63.0916 358.3170 15.58961149  1301
STARLINK-3926           
1 52543U 22051L   22160.58334491 -.00714311  00000+0 -98600-2 0  9990
2 52543  53.2171 161.6337 0001169  57.7279   1.4405 15.58947215  1306
STARLINK-3944           
1 52544U 22051M   22160.58334491 -.00831752  00000+0 -19724-1 0  9999
2 52544  53.2171 162.8285 0001484  49.5469  84.3817 15.43912232  1304
STARLINK-3939           
1 52545U 22051N   22160.58334491 -.00714202  00000+0 -98568-2 0  9994
2 52545  53.2171 161.6413 0001108  64.6117 355.3035 15.58951825  1306
STARLINK-3948           
1 52546U 22051P   22160.58334491 -.00714268  00000+0 -98534-2 0  9990
2 52546  53.2171 161.6672 0001244  51.8289  12.0015 15.58962500  1300
STARLINK-3869           
1 52547U 22051Q   22160.58334491 -.00831411  00000+0 -19871-1 0  9997
2 52547  53.2171 162.8164 0001582  44.8683  85.3743 15.43680532  1302
STARLINK-3931           
1 52548U 22051R   22160.58334491 -.00714218  00000+0 -98442-2 0  9995
2 52548  53.2171 161.6980 0001157  60.4644   7.0988 15.58985596  1301
STARLINK-3935           
1 52549U 22051S   22160.58334491 -.00714239  00000+0 -98548-2 0  9996
2 52549  53.2171 161.6620 0001210  53.6454   9.4382 15.58957881  1306
STARLINK-3965           
1 52550U 22051T   22160.58334491 -.00714254  00000+0 -98480-2 0  9990
2 52550  53.2171 161.6831 0001245  51.6223  14.4480 15.58976297  1309
STARLINK-3969           
1 52551U 22051U   22160.58334491 -.00714272  00000+0 -98520-2 0  9996
2 52551  53.2171 161.6680 0001158  58.8235   5.7536 15.58967037  1304
STARLINK-3966           
1 52552U 22051V   22160.58334491 -.00714347  00000+0 -98443-2 0  9994
2 52552  53.2171 161.7055 0001185  57.7148  10.5947 15.58990296  1306
STARLINK-3858           
1 52553U 22051W   22160.58334491 -.00714289  00000+0 -98503-2 0  9997
2 52553  53.2171 161.6755 0001230  53.4465  11.8772 15.58971682  1307
STARLINK-3770           
1 52554U 22051X   22160.58334491 -.00831826  00000+0 -19598-1 0  9991
2 52554  53.2171 162.8344 0001527  48.5906  91.8570 15.44102472  1301
STARLINK-3949           
1 52555U 22051Y   22160.58334491 -.00714342  00000+0 -98479-2 0  9991
2 52555  53.2171 161.6905 0001115  65.9502   0.8664 15.58981017  1309
STARLINK-3763           
1 52556U 22051Z   22160.58334491 -.00831967  00000+0 -19449-1 0  9994
2 52556  53.2171 162.8456 0001745  38.6737 105.5921 15.44329446  1306
STARLINK-3943           
1 52557U 22051AA  22160.58334491 -.00714251  00000+0 -98411-2 0  9998
2 52557  53.2171 161.7129 0001196  56.6567  12.3992 15.58994895  1307
STARLINK-3954           
1 52558U 22051AB  22160.58334491  .00011956  00000+0  89596-4 0  9995
2 52558  53.2162 161.1667 0002829  12.6549 297.0226 15.73170158  1302
STARLINK-3953           
1 52559U 22051AC  22160.58334491  .00013271  00000+0  98855-4 0  9996
2 52559  53.2176 161.1685 0003030  17.4762 291.0288 15.73192531  1304
STARLINK-3956           
1 52560U 22051AD  22160.58334491  .00014763  00000+0  10945-3 0  9998
2 52560  53.2161 161.1630 0002913  13.3112 298.2371 15.73193389  1307
STARLINK-3955           
1 52561U 22051AE  22160.58334491 -.00832313  00000+0 -19155-1 0  9990
2 52561  53.2171 162.8684 0001611  45.5137 105.7441 15.44788113  1307
STARLINK-3957           
1 52562U 22051AF  22160.58334491  .00011985  00000+0  89750-4 0  9994
2 52562  53.2161 161.1606 0003169  16.7555 295.9264 15.73183010  1309
STARLINK-3942           
1 52563U 22051AG  22160.58334491 -.00832278  00000+0 -19307-1 0  9991
2 52563  53.2171 162.8566 0001586  45.5142 102.4659 15.44556559  1307
STARLINK-3959           
1 52564U 22051AH  22160.58334491 -.00832453  00000+0 -19021-1 0  9990
2 52564  53.2171 162.8767 0001749  40.2114 115.8909 15.44996748  1307
STARLINK-3911           
1 52565U 22051AJ  22160.58334491  .00012279  00000+0  91859-4 0  9997
2 52565  53.2178 161.1610 0003008  17.9558 294.1047 15.73178926  1303
STARLINK-3938           
1 52566U 22051AK  22160.58334491 -.00833501  00000+0 -18123-1 0  9999
2 52566  53.2172 162.9528 0001581  47.4664 121.5941 15.46437374  1306
STARLINK-3929           
1 52567U 22051AL  22160.58334491  .00012479  00000+0  93346-4 0  9994
2 52567  53.2177 161.1591 0003133  10.8133 302.4427 15.73162196  1309
STARLINK-3930           
1 52568U 22051AM  22160.58334491  .00013353  00000+0  99403-4 0  9997
2 52568  53.2161 161.1533 0002930  18.8698 297.3944 15.73200632  1301
